{"type": "FeatureCollection", "features": [ {"type": "Feature", "properties": {"norad_id": 37834, "name": "INTELSAT 18 (IS-18)", "group": "intelsat", "lat": 0.011607958133654665, "lon": -35.310213249671236, "alt_km": 35780.49645659716, "timestamp": "2025-12-20T03:42:47.059844+00:00", "meta": {"OBJECT_NAME": "INTELSAT 18 (IS-18)", "OBJECT_ID": "2011-056A", "EPOCH": "2025-12-19T19:15:17.492256", "MEAN_MOTION": 1.0027221, "ECCENTRICITY": 0.0001656, "INCLINATION": 0.0348, "RA_OF_ASC_NODE": 279.4074, "ARG_OF_PERICENTER": 6.336, "MEAN_ANOMALY": 271.7233, "EPHEMERIS_TYPE": 0, "CLASSIFICATION_TYPE": "U", "NORAD_CAT_ID": 37834, "ELEMENT_SET_NO": 999, "REV_AT_EPOCH": 5201, "BSTAR": 0, "MEAN_MOTION_DOT": 7.7e-07, "MEAN_MOTION_DDOT": 0}, "tle": {"line1": "1 37834U 11056A   25353.80228579  .00000077  00000+0  00000+0 0  9999", "line2": "2 37834   0.0348 279.4074 0001656   6.3360 271.7233  1.00272210 52019"}}, "geometry": {"type": "Point", "coordinates": [-35.310213249671236, 0.011607958133654665]}}, {"type": "Feature", "properties": {"norad_id": 38098, "name": "INTELSAT 22 (IS-22)", "group": "intelsat", "lat": -0.007884971232415659, "lon": -143.24435296167798, "alt_km": 35782.69581396713, "timestamp": "2025-12-20T03:42:47.059856+00:00", "meta": {"OBJECT_NAME": "INTELSAT 22 (IS-22)", "OBJECT_ID": "2012-011A", "EPOCH": "2025-12-19T19:48:56.096064", "MEAN_MOTION": 1.00270554, "ECCENTRICITY": 0.0001809, "INCLINATION": 0.0143, "RA_OF_ASC_NODE": 46.6827, "ARG_OF_PERICENTER": 231.0722, "MEAN_ANOMALY": 180.2437, "EPHEMERIS_TYPE": 0, "CLASSIFICATION_TYPE": "U", "NORAD_CAT_ID": 38098, "ELEMENT_SET_NO": 999, "REV_AT_EPOCH": 539, "BSTAR": 0, "MEAN_MOTION_DOT": -3.4e-07, "MEAN_MOTION_DDOT": 0}, "tle": {"line1": "1 38098U 12011A   25353.82564926 -.00000034  00000+0  00000+0 0  9999", "line2": "2 38098   0.0143  46.6827 0001809 231.0722 180.2437  1.00270554  5392"}}, "geometry": {"type": "Point", "coordinates": [-143.24435296167798, -0.007884971232415659]}}, {"type": "Feature", "properties": {"norad_id": 38356, "name": "INTELSAT 19 (IS-19)", "group": "intelsat", "lat": -0.026396354233190037, "lon": -49.2985850216099, "alt_km": 35778.09842884106, "timestamp": "2025-12-20T03:42:47.059868+00:00", "meta": {"OBJECT_NAME": "INTELSAT 19 (IS-19)", "OBJECT_ID": "2012-030A", "EPOCH": "2025-12-19T17:28:37.236864", "MEAN_MOTION": 1.00271271, "ECCENTRICITY": 0.0002741, "INCLINATION": 0.0115, "RA_OF_ASC_NODE": 352.2924, "ARG_OF_PERICENTER": 272.7431, "MEAN_ANOMALY": 251.6929, "EPHEMERIS_TYPE": 0, "CLASSIFICATION_TYPE": "U", "NORAD_CAT_ID": 38356, "ELEMENT_SET_NO": 999, "REV_AT_EPOCH": 4865, "BSTAR": 0, "MEAN_MOTION_DOT": -3.2e-07, "MEAN_MOTION_DDOT": 0}, "tle": {"line1": "1 38356U 12030A   25353.72820876 -.00000032  00000+0  00000+0 0  9993", "line2": "2 38356   0.0115 352.2924 0002741 272.7431 251.6929  1.00271271 48659"}}, "geometry": {"type": "Point", "coordinates": [-49.2985850216099, -0.026396354233190037]}}, {"type": "Feature", "properties": {"norad_id": 38740, "name": "INTELSAT 20 (IS-20)", "group": "intelsat", "lat": 0.0005997299501050667, "lon": -146.80514138590962, "alt_km": 35776.49568305197, "timestamp": "2025-12-20T03:42:47.059879+00:00", "meta": {"OBJECT_NAME": "INTELSAT 20 (IS-20)", "OBJECT_ID": "2012-043A", "EPOCH": "2025-12-19T19:47:01.907232", "MEAN_MOTION": 1.00269886, "ECCENTRICITY": 0.0002784, "INCLINATION": 0.0223, "RA_OF_ASC_NODE": 80.7002, "ARG_OF_PERICENTER": 102.3785, "MEAN_ANOMALY": 270.8487, "EPHEMERIS_TYPE": 0, "CLASSIFICATION_TYPE": "U", "NORAD_CAT_ID": 38740, "ELEMENT_SET_NO": 999, "REV_AT_EPOCH": 4895, "BSTAR": 0, "MEAN_MOTION_DOT": 0, "MEAN_MOTION_DDOT": 0}, "tle": {"line1": "1 38740U 12043A   25353.82432763  .00000000  00000+0  00000+0 0  9993", "line2": "2 38740   0.0223  80.7002 0002784 102.3785 270.8487  1.00269886 48957"}}, "geometry": {"type": "Point", "coordinates": [-146.80514138590962, 0.0005997299501050667]}}, {"type": "Feature", "properties": {"norad_id": 38749, "name": "INTELSAT 21 (IS-21)", "group": "intelsat", "lat": 0.02742837328878397, "lon": 86.67890026699187, "alt_km": 35792.11434236364, "timestamp": "2025-12-20T03:42:47.059891+00:00", "meta": {"OBJECT_NAME": "INTELSAT 21 (IS-21)", "OBJECT_ID": "2012-045A", "EPOCH": "2025-12-19T11:16:36.486336", "MEAN_MOTION": 1.00273688, "ECCENTRICITY": 0.0001541, "INCLINATION": 0.0278, "RA_OF_ASC_NODE": 286.5242, "ARG_OF_PERICENTER": 333.6711, "MEAN_ANOMALY": 299.2721, "EPHEMERIS_TYPE": 0, "CLASSIFICATION_TYPE": "U", "NORAD_CAT_ID": 38749, "ELEMENT_SET_NO": 999, "REV_AT_EPOCH": 4872, "BSTAR": 0, "MEAN_MOTION_DOT": -2.6e-06, "MEAN_MOTION_DDOT": 0}, "tle": {"line1": "1 38749U 12045A   25353.46986674 -.00000260  00000+0  00000+0 0  9998", "line2": "2 38749   0.0278 286.5242 0001541 333.6711 299.2721  1.00273688 48722"}}, "geometry": {"type": "Point", "coordinates": [86.67890026699187, 0.02742837328878397]}}, {"type": "Feature", "properties": {"norad_id": 38867, "name": "INTELSAT 23 (IS-23)", "group": "intelsat", "lat": 0.029160643715850157, "lon": 91.71413231082347, "alt_km": 35788.815262827644, "timestamp": "2025-12-20T03:42:47.059903+00:00", "meta": {"OBJECT_NAME": "INTELSAT 23 (IS-23)", "OBJECT_ID": "2012-057A", "EPOCH": "2025-12-19T18:08:46.360896", "MEAN_MOTION": 1.00270282, "ECCENTRICITY": 5.78e-05, "INCLINATION": 0.0148, "RA_OF_ASC_NODE": 49.4556, "ARG_OF_PERICENTER": 244.3667, "MEAN_ANOMALY": 14.0058, "EPHEMERIS_TYPE": 0, "CLASSIFICATION_TYPE": "U", "NORAD_CAT_ID": 38867, "ELEMENT_SET_NO": 999, "REV_AT_EPOCH": 4815, "BSTAR": 0, "MEAN_MOTION_DOT": -2.6e-06, "MEAN_MOTION_DDOT": 0}, "tle": {"line1": "1 38867U 12057A   25353.75609214 -.00000260  00000+0  00000+0 0  9996", "line2": "2 38867   0.0148  49.4556 0000578 244.3667  14.0058  1.00270282 48150"}}, "geometry": {"type": "Point", "coordinates": [91.71413231082347, 0.029160643715850157]}}, {"type": "Feature", "properties": {"norad_id": 39360, "name": "FM-6", "group": "intelsat", "lat": 0.0012839275421821267, "lon": 28.49250930948657, "alt_km": 35797.82474560287, "timestamp": "2025-12-20T03:42:47.059914+00:00", "meta": {"OBJECT_NAME": "FM-6", "OBJECT_ID": "2013-058A", "EPOCH": "2025-12-19T11:11:49.081920", "MEAN_MOTION": 1.00267591, "ECCENTRICITY": 0.0003051, "INCLINATION": 0.0115, "RA_OF_ASC_NODE": 64.9452, "ARG_OF_PERICENTER": 109.4337, "MEAN_ANOMALY": 325.7334, "EPHEMERIS_TYPE": 0, "CLASSIFICATION_TYPE": "U", "NORAD_CAT_ID": 39360, "ELEMENT_SET_NO": 999, "REV_AT_EPOCH": 4427, "BSTAR": 0, "MEAN_MOTION_DOT": 8e-08, "MEAN_MOTION_DDOT": 0}, "tle": {"line1": "1 39360U 13058A   25353.46654030  .00000008  00000+0  00000+0 0  9990", "line2": "2 39360   0.0115  64.9452 0003051 109.4337 325.7334  1.00267591 44271"}}, "geometry": {"type": "Point", "coordinates": [28.49250930948657, 0.0012839275421821267]}}, {"type": "Feature", "properties": {"norad_id": 40271, "name": "INTELSAT 30 (IS-30)", "group": "intelsat", "lat": 0.023373706482496936, "lon": 49.61310404504244, "alt_km": 35781.29009303113, "timestamp": "2025-12-20T03:42:47.059926+00:00", "meta": {"OBJECT_NAME": "INTELSAT 30 (IS-30)", "OBJECT_ID": "2014-062A", "EPOCH": "2025-12-19T19:39:22.686048", "MEAN_MOTION": 1.00270758, "ECCENTRICITY": 0.0001633, "INCLINATION": 0.0146, "RA_OF_ASC_NODE": 25.4584, "ARG_OF_PERICENTER": 66.8545, "MEAN_ANOMALY": 196.1418, "EPHEMERIS_TYPE": 0, "CLASSIFICATION_TYPE": "U", "NORAD_CAT_ID": 40271, "ELEMENT_SET_NO": 999, "REV_AT_EPOCH": 499, "BSTAR": 0, "MEAN_MOTION_DOT": -1.26e-06, "MEAN_MOTION_DDOT": 0}, "tle": {"line1": "1 40271U 14062A   25353.81901257 -.00000126  00000+0  00000+0 0  9996", "line2": "2 40271   0.0146  25.4584 0001633  66.8545 196.1418  1.00270758  4994"}}, "geometry": {"type": "Point", "coordinates": [49.61310404504244, 0.023373706482496936]}}, {"type": "Feature", "properties": {"norad_id": 40333, "name": "DIRECTV 14", "group": "intelsat", "lat": 0.03890211039656416, "lon": 45.45960574840007, "alt_km": 35786.40756281862, "timestamp": "2025-12-20T03:42:47.059938+00:00", "meta": {"OBJECT_NAME": "DIRECTV 14", "OBJECT_ID": "2014-078B", "EPOCH": "2025-12-19T16:13:00.599232", "MEAN_MOTION": 1.00271466, "ECCENTRICITY": 3.91e-05, "INCLINATION": 0.0182, "RA_OF_ASC_NODE": 338.4669, "ARG_OF_PERICENTER": 165.2369, "MEAN_ANOMALY": 88.8552, "EPHEMERIS_TYPE": 0, "CLASSIFICATION_TYPE": "U", "NORAD_CAT_ID": 40333, "ELEMENT_SET_NO": 999, "REV_AT_EPOCH": 4024, "BSTAR": 0, "MEAN_MOTION_DOT": -1.01e-06, "MEAN_MOTION_DDOT": 0}, "tle": {"line1": "1 40333U 14078B   25353.67570138 -.00000101  00000+0  00000+0 0  9999", "line2": "2 40333   0.0182 338.4669 0000391 165.2369  88.8552  1.00271466 40243"}}, "geometry": {"type": "Point", "coordinates": [45.45960574840007, 0.03890211039656416]}}, {"type": "Feature", "properties": {"norad_id": 40663, "name": "DIRECTV 15", "group": "intelsat", "lat": 0.03675328176800075, "lon": 41.807047499397584, "alt_km": 35785.95396487861, "timestamp": "2025-12-20T03:42:47.059953+00:00", "meta": {"OBJECT_NAME": "DIRECTV 15", "OBJECT_ID": "2015-026A", "EPOCH": "2025-12-19T19:37:07.901184", "MEAN_MOTION": 1.00271591, "ECCENTRICITY": 2.08e-05, "INCLINATION": 0.0174, "RA_OF_ASC_NODE": 339.1795, "ARG_OF_PERICENTER": 140.8553, "MEAN_ANOMALY": 160.0394, "EPHEMERIS_TYPE": 0, "CLASSIFICATION_TYPE": "U", "NORAD_CAT_ID": 40663, "ELEMENT_SET_NO": 999, "REV_AT_EPOCH": 3866, "BSTAR": 0, "MEAN_MOTION_DOT": -7.8e-07, "MEAN_MOTION_DDOT": 0}, "tle": {"line1": "1 40663U 15026A   25353.81745256 -.00000078  00000+0  00000+0 0  9993", "line2": "2 40663   0.0174 339.1795 0000208 140.8553 160.0394  1.00271591 38668"}}, "geometry": {"type": "Point", "coordinates": [41.807047499397584, 0.03675328176800075]}}]}